STARLINK-36944          
1 68029U 26040Q   26068.91668981 -.01167428  46927-3 -16090-2 0  9997
2 68029  97.2766  17.1228 0000872  95.5720 283.6275 16.06177854  2460
STARLINK-36787          
1 68094U 26042AB  26068.75002315 -.01295743  55663-3 -19390-2 0  9991
2 68094  53.1601 194.9427 0000742  64.3199  16.1164 16.04127684  2051
