[{"OBJECT_NAME":"STARLINK-36944","OBJECT_ID":"2026-040Q","EPOCH":"2026-03-09T22:00:01.999584","MEAN_MOTION":16.06177854,"ECCENTRICITY":8.723e-5,"INCLINATION":97.2766,"RA_OF_ASC_NODE":17.1228,"ARG_OF_PERICENTER":95.572,"MEAN_ANOMALY":283.6275,"EPHEMERIS_TYPE":0,"CLASSIFICATION_TYPE":"U","NORAD_CAT_ID":68029,"ELEMENT_SET_NO":999,"REV_AT_EPOCH":246,"BSTAR":-0.001608998,"MEAN_MOTION_DOT":-0.01167428,"MEAN_MOTION_DDOT":0.00046927298},{"OBJECT_NAME":"OBJECT AB","OBJECT_ID":"2026-042AB","EPOCH":"2026-03-09T18:00:02.000160","MEAN_MOTION":16.04127684,"ECCENTRICITY":7.42e-5,"INCLINATION":53.1601,"RA_OF_ASC_NODE":194.9427,"ARG_OF_PERICENTER":64.3199,"MEAN_ANOMALY":16.1164,"EPHEMERIS_TYPE":0,"CLASSIFICATION_TYPE":"U","NORAD_CAT_ID":68094,"ELEMENT_SET_NO":999,"REV_AT_EPOCH":205,"BSTAR":-0.0019389814,"MEAN_MOTION_DOT":-0.01295743,"MEAN_MOTION_DDOT":0.00055663231}]
